ICEYE-X72               
1 68504U 26067CS  26198.00002315 -.00049657  00000+0 -43982-2 0  9991
2 68504  97.7660 155.9512 0000657 156.2388 336.5177 14.96511418  5770
ICEYE-X78               
1 68995U 26100R   26197.72261821  .00000561  00000+0  61117-4 0  9991
2 68995  97.7331  94.6264 0003485  51.9112 308.2420 14.91813580 11101
ICEYE-X82               
1 68996U 26100S   26198.14751002  .00001180  00000+0  12360-3 0  9997
2 68996  97.7325  94.9862 0005628  58.7895 301.3874 14.91429725 11163
